{
  "type": "FeatureCollection",
  "features": [
    {
      "type": "Feature",
      "properties": {
        "norad_id": 53093,
        "name": "COSMOS 2251 DEB",
        "group": "cosmos-2251-debris",
        "lat": -71.19852841980862,
        "lon": -137.5278506816008,
        "alt_km": 755.3226961319397,
        "timestamp": "2025-12-24T11:33:00.417434+00:00",
        "meta_object_name": "COSMOS 2251 DEB",
        "meta_object_id": "1993-036BYP",
        "meta_epoch": "2025-12-24T03:35:37.544640",
        "meta_mean_motion": 14.41939864,
        "meta_eccentricity": 0.0019879,
        "meta_inclination": 74.0365,
        "meta_ra_of_asc_node": 280.3068,
        "meta_arg_of_pericenter": 355.7185,
        "meta_mean_anomaly": 4.3798,
        "meta_ephemeris_type": 0,
        "meta_classification_type": "U",
        "meta_norad_cat_id": 53093,
        "meta_element_set_no": 999,
        "meta_rev_at_epoch": 17890,
        "meta_bstar": 0.00089504,
        "meta_mean_motion_dot": 2.914e-05,
        "meta_mean_motion_ddot": 0,
        "tle_line1": "1 53093U 93036BYP 25358.14974010  .00002914  00000+0  89504-3 0  9994",
        "tle_line2": "2 53093  74.0365 280.3068 0019879 355.7185   4.3798 14.41939864178907"
      },
      "geometry": {
        "type": "Point",
        "coordinates": [
          -137.5278506816008,
          -71.19852841980862
        ]
      }
    }
  ]
}